AEROCUBE 8D             
1 41852U 16067E   25074.50208906  .00015150  00000+0  80047-3 0  9991
2 41852  98.1133 266.2733 0003555 268.6865  91.3959 15.15603366456383
AEROCUBE 8C             
1 41853U 16067F   25074.58021835  .00016137  00000+0  84987-3 0  9997
2 41853  98.0970 264.3138 0006484 193.4606 166.6452 15.15688093456386
PROMETHEUS 2-1          
1 41854U 16067G   25074.48094541  .00062411  00000+0  16189-2 0  9995
2 41854  98.0882 278.2961 0008058 197.7703 162.3259 15.38748905457126
PROMETHEUS 2-3          
1 41855U 16067H   25074.48884079  .00060909  00000+0  15838-2 0  9999
2 41855  98.0826 277.5379 0006969 207.0624 153.0257 15.38689276457126
CORVUS BC2              
1 42846U 17042X   25074.46733171  .00008479  00000+0  65207-3 0  9998
2 42846  97.3692 251.2770 0012509 226.3281 133.6908 15.01876819418107
CORVUS BC1              
1 42847U 17042Y   25074.46571255  .00008480  00000+0  64832-3 0  9997
2 42847  97.3713 251.7387 0012050 203.6085 156.4589 15.02104930418121
MIRATA                  
1 43015U 17073C   25074.62442793  .00088466  00000+0  21142-2 0  9999
2 43015  97.5543 326.3946 0108348  37.0012 323.8639 15.35215957397554
MAKERSAT 0              
1 43016U 17073D   25074.62477147  .00027900  00000+0  12053-2 0  9998
2 43016  97.5334 313.7765 0158636  77.4435 284.4486 15.11709453396738
SIRION PATHFINDER-2     
1 43759U 18099B   25074.13043463  .00011254  00000+0  72473-3 0  9995
2 43759  97.4894 129.1532 0011623  85.7223 274.5334 15.08456979343275
CORVUS BC4              
1 43767U 18099K   25074.61034163  .00010346  00000+0  69149-3 0  9991
2 43767  97.4715 125.8294 0010587 133.8365 226.3740 15.07114351343207
MOVE-II                 
1 43780U 18099Y   25074.09950737  .00120958  00000+0  23471-2 0  9990
2 43780  97.4763 145.1428 0003761 129.1107 231.0478 15.47207627344314
SPACEBEE-7              
1 43816U 18099BL  25074.12721506  .00047930  00000+0  16805-2 0  9995
2 43816  97.5061 143.1036 0007056  72.8178 287.3833 15.29271714343554
SHIELDS 1               
1 43850U 18104B   25074.56117368  .00039148  00000+0  59952-3 0  9996
2 43850  85.0122  96.8359 0010832 113.4835 246.7564 15.54111901348062
SONATE                  
1 44400U 19038Q   25074.55859776  .00106175  00000+0  11092-2 0  9997
2 44400  97.7057  91.9379 0008926 184.4319 175.6862 15.64090109316013
DUCHIFAT-3              
1 44854U 19089C   25074.59108591  .00065072  00000+0  17372-2 0  9999
2 44854  36.9470 178.4504 0005700 193.4721 166.5881 15.37030807289732
M2 PATHFINDER           
1 45727U 20037E   25074.45658689  .00009352  00000+0  73304-3 0  9994
2 45727  97.8042 256.5247 0011875 272.0352  87.9512 15.01148981256587
NETSAT-4                
1 46504U 20068U   25074.47854012  .00027358  00000+0  10411-2 0  9997
2 46504  97.8396  47.6898 0009991 129.8445 230.3673 15.26681946245391
NETSAT-3                
1 46505U 20068V   25074.46070674  .00025799  00000+0  10161-2 0  9990
2 46505  97.8390  46.8019 0009100 138.5130 221.6799 15.25557825245368
NETSAT-1                
1 46506U 20068W   25074.46093469  .00019841  00000+0  87943-3 0  9992
2 46506  97.8412  45.2083 0007853 150.1605 210.0079 15.21630023245257
NETSAT-2                
1 46507U 20068X   25074.44926965  .00026933  00000+0  10339-2 0  9991
2 46507  97.8389  47.1970 0007115 148.1926 211.9743 15.26418533245333
WILDTRACKCUBE-SIMBA     
1 47941U 21022K   25074.61795546  .00046757  00000+0  12196-2 0  9992
2 47941  97.4322 337.5613 0008355 261.2200  98.8099 15.38651761219947
GRBALPHA                
1 47959U 21022AD  25074.58974463  .00139128  00000+0  17577-2 0  9997
2 47959  97.4281 343.3561 0004310 212.5984 147.5006 15.59068274219148
LEDSAT                  
1 49069U 21073D   25074.25054470  .00075901  00000+0  14434-2 0  9995
2 49069  97.3979 152.9542 0011012  37.6257 322.5761 15.47914166198027
ROBUSTA-1F (MTCUBE 2)   
1 53109U 22080E   25073.12327726 -.00000003  00000+0  00000+0 0  9999
2 53109  70.1189  98.2472 0008445  26.5879 333.5212  6.42584415 62507
SITRO-AIS 5 (KATYS)     
1 57176U 23091L   25074.57384617  .00018971  00000+0  95294-3 0  9997
2 57176  97.5702 131.4710 0013638 266.8232  93.1441 15.17245486 94520
SITRO-AIS 6 (CHIRKIN)   
1 57192U 23091AC  25074.62264289  .00018629  00000+0  93746-3 0  9993
2 57192  97.5702 131.5427 0013434 266.2825  93.6872 15.17188072 94531
SITRO-AIS 8 (ANOKHIN)   
1 57193U 23091AD  25074.60295026  .00018775  00000+0  91513-3 0  9997
2 57193  97.5697 131.8611 0012967 265.8518  94.1234 15.18307070 94559
SITRO-AIS 7 (FARTUSHNIY)
1 57194U 23091AE  25074.44151599  .00020180  00000+0  10172-2 0  9990
2 57194  97.5699 131.3127 0013401 267.6189  92.3510 15.17112656 94502
SITRO-AIS 10 (BURDAEV)  
1 57199U 23091AK  25074.56450429  .00022584  00000+0  10128-2 0  9993
2 57199  97.5709 133.7162 0009005 247.8360 112.1920 15.21187505 94663
SITRO-AIS 9 (SHCHUKIN)  
1 57201U 23091AM  25074.57316931  .00023521  00000+0  10583-2 0  9994
2 57201  97.5704 133.6650 0009027 248.0504 111.9772 15.21065223 94664
SITRO-AIS 12 (SMIRENNIY)
1 57204U 23091AQ  25074.56668196  .00022562  00000+0  10096-2 0  9992
2 57204  97.5714 133.9028 0009046 241.4561 118.5764 15.21262402 94674
SITRO-AIS 11 (SHEFFER)  
1 57208U 23091AU  25074.59555115  .00022749  00000+0  10131-2 0  9992
2 57208  97.5709 133.9991 0008940 241.4590 118.5746 15.21425469 94680
VERONIKA                
1 58261U 23174F   25074.48267600  .00097014  00000+0  17617-2 0  9994
2 58261  97.4225 156.8853 0005611 347.3504  12.7605 15.49204797 75267
ROBUSTA-1E (ENSO)       
1 58470U 23185J   25074.49626883  .00065727  00000+0  13896-2 0  9992
2 58470  97.3835 147.4844 0007467  37.4871 322.6897 15.44900501 71696
SITRO-AIS 29            
1 59052U 24039B   25074.60167493  .00197137  00000+0  18039-2 0  9993
2 59052  97.4148  46.8018 0003542   6.8921 353.2387 15.67178297 58437
SITRO-AIS 30            
1 59053U 24039C   25074.55566886  .00179140  00000+0  17570-2 0  9990
2 59053  97.4139  46.5430 0004156 359.3876   0.7378 15.65493959 58404
SITRO-AIS 31            
1 59054U 24039D   25074.60879712  .00191637  00000+0  17938-2 0  9995
2 59054  97.4159  46.7936 0003968   5.4249 354.7054 15.66628302 58443
SITRO-AIS 33            
1 59055U 24039E   25074.57693657  .00190635  00000+0  17653-2 0  9995
2 59055  97.4142  46.8392 0003586   8.4465 351.6855 15.66901720 58434
SITRO-AIS 35            
1 59056U 24039F   25074.56196794  .00195801  00000+0  17909-2 0  9999
2 59056  97.4151  46.8635 0003853  15.7468 344.3912 15.67192132 58439
SITRO-AIS 32            
1 59057U 24039G   25074.56839087  .00184209  00000+0  17718-2 0  9997
2 59057  97.4156  46.7106 0004064   8.0530 352.0794 15.65969732 58426
SITRO-AIS 34            
1 59058U 24039H   25074.57861219  .00195151  00000+0  18136-2 0  9994
2 59058  97.4146  46.8416 0003635  10.6392 349.4944 15.66798287 58433
SITRO-AIS 36            
1 59059U 24039J   25074.55812756  .00182124  00000+0  17120-2 0  9993
2 59059  97.4133  46.8521 0003573  13.9108 346.2250 15.66553204 58432
SITRO-AIS 49            
1 59060U 24039K   25074.60535487  .00185080  00000+0  17897-2 0  9999
2 59060  97.4147  46.8005 0003890   5.5242 354.6060 15.65833563 58434
SITRO-AIS 50            
1 59061U 24039L   25074.61224596  .00203065  00000+0  17926-2 0  9994
2 59061  97.4131  47.0808 0003040  14.4225 345.7123 15.68051453 58455
SITRO-AIS 51            
1 59062U 24039M   25074.59509998  .00206564  00000+0  17956-2 0  9994
2 59062  97.4134  47.1045 0003055  15.7535 344.3821 15.68420630 58454
SITRO-AIS 52            
1 59063U 24039N   25074.57050859  .00197843  00000+0  17100-2 0  9990
2 59063  97.4141  47.1533 0003495  21.0904 339.0501 15.68586183 58455
SITRO-AIS 25            
1 59066U 24039R   25074.62218040  .00009180  00000+0  78975-3 0  9991
2 59066  95.3788 281.5620 0160068 125.1577 236.4762 14.88032413 56400
SITRO-AIS 26            
1 59067U 24039S   25074.57236780  .00010063  00000+0  86805-3 0  9990
2 59067  95.3787 281.5002 0160338 125.4897 236.1407 14.87885671 56394
SITRO-AIS 27            
1 59068U 24039T   25074.58580115  .00010613  00000+0  90935-3 0  9996
2 59068  95.3790 281.6033 0159726 124.9170 236.7180 14.88195571 56401
SITRO-AIS 28            
1 59071U 24039U   25074.57521192  .00010275  00000+0  88004-3 0  9997
2 59071  95.3790 281.6176 0159503 124.9040 236.7291 14.88237093 56401
GRBBETA                 
1 60237U 24128C   25074.39827882  .00012313  00000+0  94537-3 0  9990
2 60237  61.9942  19.8087 0043970  38.4381 321.9827 15.01359408 37259
OOV-CUBE (TUBSAT-30)    
1 60240U 24128F   25074.26517956  .00008210  00000+0  66995-3 0  9996
2 60240  61.9985  22.0078 0042769  34.6452 325.7410 14.99419940 37218
ROBUSTA-3A (MEDITERRAN*)
1 60243U 24128J   25074.53578099  .00020053  00000+0  14809-2 0  9999
2 60243  61.9912  19.2799 0042479  31.7453 328.6185 15.02587226 37282
LASARSAT                
1 62391U 24247Q   25074.52832948  .00030018  00000+0  13011-2 0  9998
2 62391  44.9909 267.4421 0006469 247.8900 112.1294 15.21902215 12932
CROCUBE                 
1 62394U 24247T   25074.59547519  .00030659  00000+0  13265-2 0  9997
2 62394  44.9901 267.0931 0007048 249.0172 110.9955 15.21950643 12947
